NORAD_CAT_ID,OBJECT_NAME,OBJECT_TYPE,EPOCH,MEAN_MOTION,ECCENTRICITY,INCLINATION,RA_OF_ASC_NODE,ARG_OF_PERICENTER,MEAN_ANOMALY,BSTAR,MEAN_MOTION_DOT,MEAN_MOTION_DDOT,TLE_LINE0,TLE_LINE1,TLE_LINE2,SEMIMAJOR_AXIS,PERIOD,APOGEE,PERIGEE,DECAYED
53610.0,STARLINK-4610,PAYLOAD,2023-11-06 15:48:52,15.0886153,0.0001258,53.2156,108.1328,91.6337,268.4799,0.00036612,5.547e-05,0.0,0 STARLINK-4610,1 53610U 22104Y   23310.65894063  .00005547  00000-0  36612-3 0  9996,2 53610  53.2156 108.1328 0001258  91.6337 268.4799 15.08861530 66708,6917.815,95.436,540.55,538.809,0.0
53610.0,STARLINK-4610,PAYLOAD,2023-11-07 10:53:30,15.0883036,0.0001064,53.2148,104.5651,78.961,281.1501,0.00036918,5.591e-05,0.0,0 STARLINK-4610,1 53610U 22104Y   23311.45382974  .00005591  00000-0  36918-3 0  9996,2 53610  53.2148 104.5651 0001064  78.9610 281.1501 15.08830360 66255,6917.91,95.438,540.511,539.039,0.0
53610.0,STARLINK-4610,PAYLOAD,2023-11-07 14:04:17,15.08825115,0.0002196,53.215,103.9685,124.1643,235.9557,-0.00026937,-4.571e-05,0.0,0 STARLINK-4610,1 53610U 22104Y   23311.58630887 -.00004571  00000-0 -26937-3 0  9998,2 53610  53.2150 103.9685 0002196 124.1643 235.9557 15.08825115 66840,6917.926,95.438,541.31,538.272,0.0
53610.0,STARLINK-4610,PAYLOAD,2023-11-07 17:15:04,15.08825368,0.0001281,53.2157,103.3758,80.0407,280.073,2.6221e-05,1.29e-06,0.0,0 STARLINK-4610,1 53610U 22104Y   23311.71879773  .00000129  00000-0  26221-4 0  9992,2 53610  53.2157 103.3758 0001281  80.0407 280.0730 15.08825368 66297,6917.925,95.438,540.676,538.904,0.0
53610.0,STARLINK-4610,PAYLOAD,2023-11-08 13:55:05,15.0883318,0.0001488,53.2157,99.5105,79.0536,281.0623,0.00050543,7.764e-05,0.0,0 STARLINK-4610,1 53610U 22104Y   23312.57992243  .00007764  00000-0  50543-3 0  9990,2 53610  53.2157  99.5105 0001488  79.0536 281.0623 15.08833180 66999,6917.901,95.438,540.796,538.737,0.0
53610.0,STARLINK-4610,PAYLOAD,2023-11-08 17:05:51,15.08841662,0.000145,53.2158,98.916,97.6515,262.4642,0.00057705,8.908e-05,0.0,0 STARLINK-4610,1 53610U 22104Y   23312.71240159  .00008908  00000-0  57705-3 0  9996,2 53610  53.2158  98.9160 0001450  97.6515 262.4642 15.08841662 66444,6917.875,95.437,540.743,538.737,0.0
53610.0,STARLINK-4610,PAYLOAD,2023-11-09 08:59:42,15.08843537,0.000165,53.2169,95.9444,95.0226,265.0954,0.00047525,7.284e-05,0.0,0 STARLINK-4610,1 53610U 22104Y   23313.37480247  .00007284  00000-0  47525-3 0  9998,2 53610  53.2169  95.9444 0001650  95.0226 265.0954 15.08843537 66540,6917.87,95.437,540.876,538.593,0.0
53610.0,STARLINK-4610,PAYLOAD,2023-11-09 13:45:52,15.08844484,0.0001637,53.2166,95.0518,91.6517,268.4663,0.00038929,5.914e-05,0.0,0 STARLINK-4610,1 53610U 22104Y   23313.57352186  .00005914  00000-0  38929-3 0  9996,2 53610  53.2166  95.0518 0001637  91.6517 268.4663 15.08844484 67143,6917.867,95.437,540.864,538.599,0.0
53610.0,STARLINK-4610,PAYLOAD,2023-11-09 15:21:15,15.0884777,0.00016,53.2164,94.7563,86.0919,274.0256,0.00048227,7.397e-05,0.0,0 STARLINK-4610,1 53610U 22104Y   23313.63976168  .00007397  00000-0  48227-3 0  9994,2 53610  53.2164  94.7563 0001600  86.0919 274.0256 15.08847770 67154,6917.857,95.437,540.828,538.615,0.0
53610.0,STARLINK-4610,PAYLOAD,2023-11-10 08:50:29,15.0884039,0.0001572,53.2161,91.482,92.5537,267.5635,3.836e-05,3.23e-06,0.0,0 STARLINK-4610,1 53610U 22104Y   23314.36840042  .00000323  00000-0  38360-4 0  9996,2 53610  53.2161  91.4820 0001572  92.5537 267.5635 15.08840390 66694,6917.879,95.438,540.832,538.657,0.0
53610.0,STARLINK-4610,PAYLOAD,2023-11-10 13:36:39,15.08846572,0.0001432,53.2151,90.5895,96.8169,263.2986,0.00024141,3.557e-05,0.0,0 STARLINK-4610,1 53610U 22104Y   23314.56711880  .00003557  00000-0  24141-3 0  9998,2 53610  53.2151  90.5895 0001432  96.8169 263.2986 15.08846572 67295,6917.86,95.437,540.716,538.735,0.0
53610.0,STARLINK-4610,PAYLOAD,2023-11-10 16:47:25,15.08847403,0.0001431,53.2151,89.9962,86.0395,274.0761,0.00017271,2.462e-05,0.0,0 STARLINK-4610,1 53610U 22104Y   23314.69959876  .00002462  00000-0  17271-3 0  9991,2 53610  53.2151  89.9962 0001431  86.0395 274.0761 15.08847403 67311,6917.858,95.437,540.713,538.733,0.0
53610.0,STARLINK-4610,PAYLOAD,2023-11-11 15:02:49,15.0883968,0.0001343,53.2156,85.8326,83.2609,276.8536,6.4141e-05,7.33e-06,0.0,0 STARLINK-4610,1 53610U 22104Y   23315.62696202  .00000733  00000-0  64141-4 0  9994,2 53610  53.2156  85.8326 0001343  83.2609 276.8536 15.08839680 67457,6917.881,95.438,540.675,538.817,0.0
53610.0,STARLINK-4610,PAYLOAD,2023-11-11 18:13:35,15.08847604,0.0001408,53.2162,85.2376,76.1966,283.9183,0.00013644,1.885e-05,0.0,0 STARLINK-4610,1 53610U 22104Y   23315.75943923  .00001885  00000-0  13644-3 0  9993,2 53610  53.2162  85.2376 0001408  76.1966 283.9183 15.08847604 66903,6917.857,95.437,540.696,538.748,0.0
53610.0,STARLINK-4610,PAYLOAD,2023-11-12 02:10:31,15.08842359,0.0001352,53.2164,83.7494,88.7224,271.3923,5.4212e-05,5.75e-06,0.0,0 STARLINK-4610,1 53610U 22104Y   23316.09064047  .00000575  00000-0  54212-4 0  9994,2 53610  53.2164  83.7494 0001352  88.7224 271.3923 15.08842359 66953,6917.873,95.437,540.673,538.803,0.0
53610.0,STARLINK-4610,PAYLOAD,2023-11-12 13:18:13,15.08842793,0.0001328,53.2161,81.6697,81.594,278.5203,0.00016952,2.411e-05,0.0,0 STARLINK-4610,1 53610U 22104Y   23316.55432196  .00002411  00000-0  16952-3 0  9998,2 53610  53.2161  81.6697 0001328  81.5940 278.5203 15.08842793 67594,6917.872,95.437,540.656,538.818,0.0
53610.0,STARLINK-4610,PAYLOAD,2023-11-12 18:04:22,15.08850501,0.0001365,53.2166,80.775,94.015,266.0998,0.00019137,2.76e-05,0.0,0 STARLINK-4610,1 53610U 22104Y   23316.75303722  .00002760  00000-0  19137-3 0  9997,2 53610  53.2166  80.7750 0001365  94.0150 266.0998 15.08850501 67625,6917.848,95.437,540.658,538.769,0.0
53610.0,STARLINK-4610,PAYLOAD,2023-11-13 11:33:36,15.08849407,0.0001465,53.2173,77.5026,96.3262,263.7897,9.3964e-05,1.208e-05,0.0,0 STARLINK-4610,1 53610U 22104Y   23317.48167671  .00001208  00000-0  93964-4 0  9996,2 53610  53.2173  77.5026 0001465  96.3262 263.7897 15.08849407 67167,6917.852,95.437,540.73,538.703,0.0
53610.0,STARLINK-4610,PAYLOAD,2023-11-13 14:44:24,15.08810724,0.0001575,53.2175,76.9086,104.1869,255.9299,0.0013051,0.00020527,0.0,0 STARLINK-4610,1 53610U 22104Y   23317.61417738  .00020527  00000-0  13051-2 0  9995,2 53610  53.2175  76.9086 0001575 104.1869 255.9299 15.08810724 67182,6917.97,95.439,540.924,538.745,0.0
53610.0,STARLINK-4610,PAYLOAD,2023-11-14 11:24:24,15.08838132,0.0001313,53.2162,73.043,93.1006,267.0136,-2.7079e-06,-3.31e-06,0.0,0 STARLINK-4610,1 53610U 22104Y   23318.47528144 -.00000331  00000-0 -27079-5 0  9995,2 53610  53.2162  73.0430 0001313  93.1006 267.0136 15.08838132 67311,6917.886,95.438,540.659,538.843,0.0
53610.0,STARLINK-4610,PAYLOAD,2023-11-14 14:35:10,15.08836916,0.0001226,53.2172,72.4501,91.0379,269.0753,-3.4956e-07,-2.93e-06,0.0,0 STARLINK-4610,1 53610U 22104Y   23318.60776213 -.00000293  00000-0 -34956-6 0  9992,2 53610  53.2172  72.4501 0001226  91.0379 269.0753 15.08836916 67907,6917.89,95.438,540.603,538.907,0.0
53610.0,STARLINK-4610,PAYLOAD,2023-11-15 12:50:34,15.08842337,0.0001285,53.2176,68.287,93.5394,266.5745,5.574e-05,5.99e-06,0.0,0 STARLINK-4610,1 53610U 22104Y   23319.53512153  .00000599  00000-0  55740-4 0  9995,2 53610  53.2176  68.2870 0001285  93.5394 266.5745 15.08842337 68045,6917.873,95.437,540.627,538.849,0.0
53610.0,STARLINK-4610,PAYLOAD,2023-11-15 23:58:16,15.08840468,0.0001264,53.2177,66.2056,90.1546,269.9591,0.00010406,1.369e-05,0.0,0 STARLINK-4610,1 53610U 22104Y   23319.99880188  .00001369  00000-0  10406-3 0  9996,2 53610  53.2177  66.2056 0001264  90.1546 269.9591 15.08840468 68116,6917.879,95.438,540.618,538.87,0.0
53610.0,STARLINK-4610,PAYLOAD,2023-11-16 17:27:31,15.08837954,0.0001272,53.2174,62.9355,91.5437,268.57,0.00012096,1.638e-05,0.0,0 STARLINK-4610,1 53610U 22104Y   23320.72744409  .00001638  00000-0  12096-3 0  9990,2 53610  53.2174  62.9355 0001272  91.5437 268.5700 15.08837954 67652,6917.887,95.438,540.632,538.872,0.0
53610.0,STARLINK-4610,PAYLOAD,2023-11-17 10:56:46,15.08835883,0.000133,53.2177,59.6643,84.2838,275.8306,2.6052e-05,1.27e-06,0.0,0 STARLINK-4610,1 53610U 22104Y   23321.45609030  .00000127  00000-0  26052-4 0  9991,2 53610  53.2177  59.6643 0001330  84.2838 275.8306 15.08835883 67761,6917.893,95.438,540.678,538.838,0.0
53610.0,STARLINK-4610,PAYLOAD,2023-11-17 12:32:09,15.08836188,0.0001338,53.2179,59.3668,83.4983,276.6162,2.5387e-05,1.16e-06,0.0,0 STARLINK-4610,1 53610U 22104Y   23321.52233008  .00000116  00000-0  25387-4 0  9995,2 53610  53.2179  59.3668 0001338  83.4983 276.6162 15.08836188 68340,6917.892,95.438,540.683,538.831,0.0
53610.0,STARLINK-4610,PAYLOAD,2023-11-18 12:22:56,15.08838126,0.0001528,53.2193,54.9076,81.2585,278.8581,0.00011129,1.484e-05,0.0,0 STARLINK-4610,1 53610U 22104Y   23322.51592773  .00001484  00000-0  11129-3 0  9999,2 53610  53.2193  54.9076 0001528  81.2585 278.8581 15.08838126 67921,6917.886,95.438,540.808,538.694,0.0
53610.0,STARLINK-4610,PAYLOAD,2023-11-18 15:33:42,15.08840449,0.0001616,53.2198,54.313,81.6465,278.4711,0.00012516,1.704e-05,0.0,0 STARLINK-4610,1 53610U 22104Y   23322.64840634  .00001704  00000-0  12516-3 0  9991,2 53610  53.2198  54.3130 0001616  81.6465 278.4711 15.08840449 68518,6917.879,95.438,540.862,538.626,0.0
53610.0,STARLINK-4610,PAYLOAD,2023-11-19 12:13:43,15.08841303,0.000136,53.2181,50.4457,88.1042,272.0106,8.3361e-05,1.039e-05,0.0,0 STARLINK-4610,1 53610U 22104Y   23323.50952744  .00001039  00000-0  83361-4 0  9991,2 53610  53.2181  50.4457 0001360  88.1042 272.0106 15.08841303 68640,6917.876,95.437,540.682,538.801,0.0
53610.0,STARLINK-4610,PAYLOAD,2023-11-20 00:56:48,15.08842015,0.0001443,53.2181,48.0694,84.4106,275.705,6.248e-05,7.07e-06,0.0,0 STARLINK-4610,1 53610U 22104Y   23324.03944743  .00000707  00000-0  62480-4 0  9990,2 53610  53.2181  48.0694 0001443  84.4106 275.7050 15.08842015 68153,6917.874,95.437,540.737,538.741,0.0
